OBJECT_NAME,OBJECT_ID,EPOCH,MEAN_MOTION,ECCENTRICITY,INCLINATION,RA_OF_ASC_NODE,ARG_OF_PERICENTER,MEAN_ANOMALY,EPHEMERIS_TYPE,CLASSIFICATION_TYPE,NORAD_CAT_ID,ELEMENT_SET_NO,REV_AT_EPOCH,BSTAR,MEAN_MOTION_DOT,MEAN_MOTION_DDOT
IRIDIUM 135,2017-083A,2026-07-18T19:50:07.160064,14.34217719,.00021156,86.3984,308.7903,95.2465,264.8972,0,U,43070,999,44868,-.715995E-5,0,0
IRIDIUM 138,2017-083B,2026-07-18T20:26:39.046848,14.34217095,.00020319,86.4001,308.4798,94.0364,266.1064,0,U,43071,999,44867,.61198243E-4,.191E-5,0
IRIDIUM 116,2017-083C,2026-07-18T19:40:59.168064,14.34216762,.00024946,86.3989,308.7782,100.0325,260.1153,0,U,43072,999,44870,.38089759E-4,.126E-5,0
IRIDIUM 130,2017-083D,2026-07-18T18:55:19.278048,14.34218787,.00023306,86.3995,309.0701,100.3469,259.7989,0,U,43073,999,44864,.43440301E-4,.141E-5,0
IRIDIUM 151,2017-083E,2026-07-18T19:59:15.222048,14.34217703,.00022888,86.3987,308.8319,95.5385,264.6072,0,U,43074,999,44867,.30314063E-4,.105E-5,0
IRIDIUM 134,2017-083F,2026-07-18T19:13:35.186880,14.34217856,.00022485,86.3990,308.8534,96.6551,263.4901,0,U,43075,999,44863,.7045188E-5,.4E-6,0
IRIDIUM 137,2017-083G,2026-07-18T19:31:51.261600,14.34217624,.00025611,86.3987,308.9417,91.9723,268.1766,0,U,43076,999,44870,-.10620912E-4,-.1E-6,0
IRIDIUM 141,2017-083H,2026-07-18T19:22:43.171968,14.34217612,.00020954,86.3986,308.7730,94.1815,265.9620,0,U,43077,999,44870,.41321491E-4,.135E-5,0
IRIDIUM 153,2017-083J,2026-07-18T18:13:51.406464,14.34217675,.0002127,86.3957,277.2716,95.7446,264.3992,0,U,43078,999,44980,.1333238E-5,.24E-6,0
IRIDIUM 131,2017-083K,2026-07-18T19:04:27.183648,14.34217464,.00020885,86.3986,308.9664,93.6613,266.4822,0,U,43079,999,44863,-.19877343E-4,-.36E-6,0
IRIDIUM 144,2018-030A,2026-07-18T18:22:59.405376,14.34217236,.00023568,86.3956,277.1974,95.4703,264.6762,0,U,43249,999,43466,.22481137E-4,.83E-6,0
IRIDIUM 149,2018-030B,2026-07-18T21:53:03.415776,14.34217616,.00021184,86.3952,277.1027,93.4083,266.7356,0,U,43250,999,43470,-.3834733E-5,.9E-7,0
IRIDIUM 157,2018-030C,2026-07-18T22:20:27.462624,14.34218776,.00022851,86.3955,277.1489,95.1521,264.9936,0,U,43251,999,43468,.35373015E-4,.119E-5,0
IRIDIUM 140,2018-030D,2026-07-18T17:46:27.562656,14.34218472,.00022533,86.3956,277.2411,95.9238,264.2215,0,U,43252,999,43471,.39982678E-4,.132E-5,0
IRIDIUM 145,2018-030E,2026-07-18T17:28:11.480160,14.34217371,.00025516,86.3955,277.2185,98.2475,261.9010,0,U,43253,999,43464,.8702752E-5,.44E-6,0
IRIDIUM 146,2018-030F,2026-07-18T17:00:47.470464,14.34217491,.00023646,86.3955,277.2385,96.0709,264.0757,0,U,43254,999,43465,.3087412E-5,.28E-6,0
IRIDIUM 148,2018-030G,2026-07-18T17:55:35.525280,14.34218832,.00023371,86.3956,277.2662,93.0815,267.0648,0,U,43255,999,43469,.38960224E-4,.129E-5,0
IRIDIUM 142,2018-030H,2026-07-18T22:11:19.434336,14.34217708,.00023399,86.3951,277.0795,95.8234,264.3229,0,U,43256,999,43468,-.1511905E-5,.16E-6,0
IRIDIUM 150,2018-030J,2026-07-18T23:06:07.401888,14.34217339,.00023025,86.3957,277.1816,96.1138,264.0320,0,U,43257,999,43471,.16701981E-4,.67E-6,0
IRIDIUM 143,2018-030K,2026-07-18T17:37:19.452288,14.34218381,.00023669,86.3959,277.3706,96.8546,263.2919,0,U,43258,999,43461,.35627453E-4,.12E-5,0
IRIDIUM 161,2018-047C,2026-07-18T17:08:55.226976,14.43276704,.0002196,86.4458,75.2858,80.6814,279.4635,0,U,43478,999,42968,.36822021E-4,.144E-5,0
IRIDIUM 152,2018-047D,2026-07-18T16:58:02.248608,14.34217536,.00020119,86.3931,75.1499,83.5543,276.5881,0,U,43479,999,42700,-.4588287E-4,-.109E-5,0
IRIDIUM 147,2018-047E,2026-07-18T22:08:34.268640,14.34217675,.00022897,86.3934,75.0657,87.7353,272.4105,0,U,43480,999,42703,.15337296E-4,.63E-6,0
IRIDIUM 110,2018-047F,2026-07-18T22:17:42.045504,14.34216664,.00020761,86.3938,75.1558,77.6509,282.4919,0,U,43481,999,42702,.36211496E-4,.121E-5,0
IRIDIUM 162,2018-047G,2026-07-18T21:59:21.342336,14.43279558,.00021921,86.4456,75.0919,86.6057,273.5395,0,U,43482,999,42970,.41450191E-4,.16E-5,0
IRIDIUM 160,2018-061A,2026-07-18T19:19:14.423520,14.34217817,.00022161,86.3939,43.5712,86.6080,273.5370,0,U,43569,999,41790,.30810556E-4,.106E-5,0
IRIDIUM 166,2018-061B,2026-07-18T13:13:54.490368,14.34217675,.00022872,86.3937,43.6276,89.7724,270.3734,0,U,43570,999,41789,-.1782786E-5,.15E-6,0
IRIDIUM 158,2018-061C,2026-07-18T12:28:14.483712,14.34217136,.00021056,86.3939,43.6504,89.1627,270.9810,0,U,43571,999,41785,.2240921E-5,.26E-6,0
IRIDIUM 165,2018-061D,2026-07-18T13:04:46.542432,14.34217727,.00022929,86.3940,43.6873,89.8809,270.2649,0,U,43572,999,41788,.13649121E-4,.58E-6,0
IRIDIUM 155,2018-061E,2026-07-18T12:09:58.472928,14.34217569,.00021436,86.3935,43.5703,90.7534,269.3907,0,U,43573,999,41784,.126508E-5,.23E-6,0
